{
    "links": {
        "self": "http://api.nasa.gov/neo/rest/v1/neo/54171311?api_key=kVBjhkYTTfzqReoKlddVMAX329RaUKgCnihOo4qz"
    },
    "id": "54171311",
    "neo_reference_id": "54171311",
    "name": "(2021 NS8)",
    "designation": "2021 NS8",
    "nasa_jpl_url": "http://ssd.jpl.nasa.gov/sbdb.cgi?sstr=54171311",
    "absolute_magnitude_h": 25.02,
    "estimated_diameter": {
        "kilometers": {
            "estimated_diameter_min": 0.0263363131,
            "estimated_diameter_max": 0.0588897864
        },
        "meters": {
            "estimated_diameter_min": 26.3363130952,
            "estimated_diameter_max": 58.8897863577
        },
        "miles": {
            "estimated_diameter_min": 0.0163646212,
            "estimated_diameter_max": 0.0365924054
        },
        "feet": {
            "estimated_diameter_min": 86.4052294554,
            "estimated_diameter_max": 193.2079666738
        }
    },
    "is_potentially_hazardous_asteroid": false,
    "close_approach_data": [
        {
            "close_approach_date": "2022-03-30",
            "close_approach_date_full": "2022-Mar-30 09:49",
            "epoch_date_close_approach": 1648633740000,
            "relative_velocity": {
                "kilometers_per_second": "5.4828362642",
                "kilometers_per_hour": "19738.2105512974",
                "miles_per_hour": "12264.5564394992"
            },
            "miss_distance": {
                "astronomical": "0.2595549484",
                "lunar": "100.9668749276",
                "kilometers": "38828867.428599908",
                "miles": "24127139.4298104104"
            },
            "orbiting_body": "Earth"
        },
        {
            "close_approach_date": "2023-02-11",
            "close_approach_date_full": "2023-Feb-11 03:37",
            "epoch_date_close_approach": 1676086620000,
            "relative_velocity": {
                "kilometers_per_second": "20.1919766617",
                "kilometers_per_hour": "72691.1159822618",
                "miles_per_hour": "45167.4325946449"
            },
            "miss_distance": {
                "astronomical": "0.4980212327",
                "lunar": "193.7302595203",
                "kilometers": "74502915.626694349",
                "miles": "46293965.0907420562"
            },
            "orbiting_body": "Earth"
        },
        {
            "close_approach_date": "2029-08-10",
            "close_approach_date_full": "2029-Aug-10 06:25",
            "epoch_date_close_approach": 1881037500000,
            "relative_velocity": {
                "kilometers_per_second": "9.2703463854",
                "kilometers_per_hour": "33373.2469873311",
                "miles_per_hour": "20736.8378294336"
            },
            "miss_distance": {
                "astronomical": "0.1436159139",
                "lunar": "55.8665905071",
                "kilometers": "21484634.817543393",
                "miles": "13349933.0310011034"
            },
            "orbiting_body": "Earth"
        },
        {
            "close_approach_date": "2030-04-23",
            "close_approach_date_full": "2030-Apr-23 05:19",
            "epoch_date_close_approach": 1903151940000,
            "relative_velocity": {
                "kilometers_per_second": "6.0299234842",
                "kilometers_per_hour": "21707.7245431503",
                "miles_per_hour": "13488.3358418258"
            },
            "miss_distance": {
                "astronomical": "0.2875343773",
                "lunar": "111.8508727697",
                "kilometers": "43014530.395856351",
                "miles": "26727989.7946296038"
            },
            "orbiting_body": "Earth"
        }
    ],
    "orbital_data": {
        "orbit_id": "6",
        "orbit_determination_date": "2021-08-21 05:49:02",
        "first_observation_date": "2021-07-13",
        "last_observation_date": "2021-08-15",
        "data_arc_in_days": 33,
        "observations_used": 29,
        "orbit_uncertainty": "6",
        "minimum_orbit_intersection": ".0245226",
        "jupiter_tisserand_invariant": "5.669",
        "epoch_osculation": "2460000.5",
        "eccentricity": ".1913367240650693",
        "semi_major_axis": "1.090580410119246",
        "inclination": "1.996978494943227",
        "ascending_node_longitude": "248.4064286200832",
        "orbital_period": "415.9919871203256",
        "perihelion_distance": ".8819123271174893",
        "perihelion_argument": "157.2040053293175",
        "aphelion_distance": "1.299248493121002",
        "perihelion_time": "2459931.309026655987",
        "mean_anomaly": "59.87795720843946",
        "mean_motion": ".8654012845104875",
        "equinox": "J2000",
        "orbit_class": {
            "orbit_class_type": "APO",
            "orbit_class_range": "a (semi-major axis) > 1.0 AU; q (perihelion) < 1.017 AU",
            "orbit_class_description": "Near-Earth asteroid orbits which cross the Earth’s orbit similar to that of 1862 Apollo"
        }
    },
    "is_sentry_object": false
}